{
    "links": {
        "self": "http://www.neowsapp.com/rest/v1/neo/3430405?api_key=iIulBulltgU6a56xZRHN4H3l9WmuAYTsLGpBGhQ2"
    },
    "id": "3430405",
    "neo_reference_id": "3430405",
    "name": "(2008 TQ10)",
    "designation": "2008 TQ10",
    "nasa_jpl_url": "http://ssd.jpl.nasa.gov/sbdb.cgi?sstr=3430405",
    "absolute_magnitude_h": 20.5,
    "estimated_diameter": {
        "kilometers": {
            "estimated_diameter_min": 0.2111324448,
            "estimated_diameter_max": 0.4721064988
        },
        "meters": {
            "estimated_diameter_min": 211.1324447897,
            "estimated_diameter_max": 472.1064988055
        },
        "miles": {
            "estimated_diameter_min": 0.1311915784,
            "estimated_diameter_max": 0.2933532873
        },
        "feet": {
            "estimated_diameter_min": 692.6917701639,
            "estimated_diameter_max": 1548.9058855411
        }
    },
    "is_potentially_hazardous_asteroid": false,
    "close_approach_data": [
        {
            "close_approach_date": "2008-09-15",
            "close_approach_date_full": "2008-Sep-15 23:49",
            "epoch_date_close_approach": 1221522540000,
            "relative_velocity": {
                "kilometers_per_second": "12.2863790021",
                "kilometers_per_hour": "44230.9644073894",
                "miles_per_hour": "27483.4011896915"
            },
            "miss_distance": {
                "astronomical": "0.4939202599",
                "lunar": "192.1349811011",
                "kilometers": "73889418.830886413",
                "miles": "45912755.8587339794"
            },
            "orbiting_body": "Earth"
        }
    ],
    "orbital_data": {
        "orbit_id": "10",
        "orbit_determination_date": "2017-04-06 09:02:37",
        "first_observation_date": "2008-10-08",
        "last_observation_date": "2008-11-01",
        "data_arc_in_days": 24,
        "observations_used": 39,
        "orbit_uncertainty": "7",
        "minimum_orbit_intersection": ".340673",
        "jupiter_tisserand_invariant": "3.394",
        "epoch_osculation": "2459000.5",
        "eccentricity": ".4623918216957692",
        "semi_major_axis": "2.222814814944212",
        "inclination": "24.70785627429757",
        "ascending_node_longitude": "9.971045520714897",
        "orbital_period": "1210.468105866746",
        "perihelion_distance": "1.195003423369814",
        "perihelion_argument": "296.8767046463338",
        "aphelion_distance": "3.250626206518611",
        "perihelion_time": "2459494.393546590051",
        "mean_anomaly": "213.1132907090479",
        "mean_motion": ".2974056055299572",
        "equinox": "J2000",
        "orbit_class": {
            "orbit_class_type": "AMO",
            "orbit_class_description": "Near-Earth asteroid orbits similar to that of 1221 Amor",
            "orbit_class_range": "1.017 AU < q (perihelion) < 1.3 AU"
        }
    },
    "is_sentry_object": false
}